{"type":"FeatureCollection","features":[{"type":"Feature","properties":{"name":"Ilocos Region","pcode":"PH01"},"geometry":{"type":"Polygon","coordinates":[[[120.947,18.421],[120.959,18.463],[120.971,18.58],[120.91,18.564],[120.799,18.633],[120.762,18.54],[120.625,18.546],[120.565,18.495],[120.595,18.323],[120.471,18.087],[120.474,17.977],[120.402,17.798],[120.345,17.561],[120.419,17.516],[120.461,17.408],[120.416,17.202],[120.45,16.998],[120.4,16.882],[120.335,16.836],[120.336,16.679],[120.299,16.603],[120.342,16.297],[120.426,16.172],[120.328,16.069],[120.23,16.037],[120.097,16.065],[120.088,16.168],[120.012,16.17],[119.918,16.248],[119.927,16.361],[119.818,16.361],[119.779,16.308],[119.753,16.17],[119.781,16.133],[119.75,15.966],[119.857,15.964],[119.924,15.816],[119.953,15.811],[120.005,15.841],[120.018,15.871],[120.047,15.852],[120.146,15.826],[120.253,15.618],[120.36,15.733],[120.468,15.722],[120.615,15.816],[120.747,15.851],[120.819,15.793],[120.921,15.966],[120.87,16.119],[120.842,16.169],[120.769,16.198],[120.63,16.18],[120.558,16.218],[120.513,16.231],[120.469,16.38],[120.467,16.503],[120.599,16.738],[120.586,16.837],[120.66,16.909],[120.785,16.921],[120.775,17.108],[120.692,17.173],[120.678,17.257],[120.559,17.312],[120.543,17.372],[120.589,17.492],[120.474,17.484],[120.498,17.625],[120.583,17.799],[120.691,17.835],[120.834,17.959],[120.91,17.95],[120.928,18.021],[120.97,18.182],[120.917,18.285],[120.947,18.421]]]}},{"type":"Feature","properties":{"name":"Cagayan Valley","pcode":"PH02"},"geometry":{"type":"MultiPolygon","coordinates":[[[[120.87,16.119],[121.048,16.138],[121.122,16.115],[121.179,16.081],[121.183,16.076],[121.194,15.922],[121.317,15.804],[121.471,15.887],[121.471,15.925],[121.846,16.249],[122.059,16.509],[122.234,16.487],[122.298,16.552],[122.459,16.874],[122.467,16.977],[122.529,17.098],[122.417,17.14],[122.422,17.304],[122.373,17.353],[122.247,17.365],[122.163,17.611],[122.137,17.794],[122.191,17.918],[122.184,18.06],[122.216,18.152],[122.321,18.249],[122.32,18.38],[122.234,18.518],[122.147,18.507],[122.132,18.388],[122.011,18.288],[121.903,18.266],[121.603,18.374],[121.316,18.52],[121.163,18.622],[121.035,18.62],[120.971,18.58],[120.959,18.463],[121.061,18.539],[121.156,18.544],[121.227,18.436],[121.402,18.341],[121.489,18.239],[121.46,18.049],[121.364,18.062],[121.327,17.975],[121.357,17.922],[121.316,17.828],[121.388,17.794],[121.497,17.591],[121.647,17.5],[121.629,17.418],[121.56,17.35],[121.53,17.275],[121.562,17.185],[121.568,16.91],[121.521,16.839],[121.346,16.769],[121.259,16.651],[121.135,16.645],[120.984,16.569],[120.904,16.595],[120.889,16.436],[120.769,16.198],[120.842,16.169],[120.87,16.119]]],[[[121.512,19.244],[121.488,19.367],[121.411,19.392],[121.39,19.301],[121.512,19.244]]],[[[121.856,18.812],[121.989,18.943],[121.945,19.003],[121.867,18.974],[121.826,18.861],[121.856,18.812]]]]}},{"type":"Feature","properties":{"name":"Central Luzon","pcode":"PH03"},"geometry":{"type":"Polygon","coordinates":[[[119.924,15.816],[119.934,15.693],[119.904,15.622],[119.968,15.52],[119.89,15.431],[120.016,15.266],[120.059,15.065],[120.053,14.887],[120.084,14.785],[120.393,14.588],[120.389,14.459],[120.571,14.425],[120.609,14.468],[120.542,14.821],[120.655,14.774],[120.823,14.756],[120.918,14.713],[121.031,14.784],[121.105,14.763],[121.137,14.804],[121.165,14.823],[121.221,14.82],[121.253,14.829],[121.33,14.835],[121.331,14.839],[121.334,14.852],[121.34,14.886],[121.338,14.947],[121.345,15.04],[121.395,15.105],[121.417,15.217],[121.374,15.337],[121.432,15.365],[121.494,15.524],[121.616,15.648],[121.635,15.752],[121.561,15.775],[121.555,15.9],[121.743,16.07],[121.937,16.126],[122.201,16.235],[122.234,16.487],[122.059,16.509],[121.846,16.249],[121.471,15.925],[121.471,15.887],[121.317,15.804],[121.194,15.922],[121.183,16.076],[121.179,16.081],[121.122,16.115],[121.048,16.138],[120.87,16.119],[120.921,15.966],[120.819,15.793],[120.747,15.851],[120.615,15.816],[120.468,15.722],[120.36,15.733],[120.253,15.618],[120.146,15.826],[120.047,15.852],[120.018,15.871],[120.005,15.841],[119.953,15.811],[119.924,15.816]]]}},{"type":"Feature","properties":{"name":"Calabarzon","pcode":"PH04"},"geometry":{"type":"MultiPolygon","coordinates":[[[[121.105,14.763],[121.131,14.668],[121.13,14.634],[121.11,14.592],[121.11,14.547],[121.185,14.483],[121.325,14.461],[121.304,14.203],[121.213,14.178],[121.091,14.356],[121.029,14.366],[121.007,14.354],[120.97,14.447],[120.89,14.451],[120.769,14.332],[120.623,14.267],[120.586,14.196],[120.617,14.118],[120.621,13.811],[120.743,13.936],[120.879,13.902],[120.928,13.78],[121.06,13.739],[121.078,13.619],[121.18,13.645],[121.259,13.598],[121.471,13.687],[121.439,13.794],[121.478,13.842],[121.75,13.969],[121.89,13.862],[121.975,13.84],[122.133,13.745],[122.239,13.597],[122.322,13.59],[122.402,13.524],[122.519,13.343],[122.505,13.244],[122.599,13.162],[122.703,13.225],[122.677,13.379],[122.605,13.498],[122.634,13.529],[122.497,13.647],[122.509,13.769],[122.449,13.926],[122.584,13.962],[122.793,14.014],[122.452,14.15],[122.384,14.067],[122.299,14.072],[122.251,14.205],[122.167,14.134],[122.288,14.039],[122.299,13.959],[122.231,13.895],[122.036,13.948],[121.907,14.011],[121.749,14.146],[121.758,14.247],[121.659,14.401],[121.604,14.652],[121.71,14.726],[121.624,14.793],[121.573,14.948],[121.506,15.055],[121.463,15.201],[121.417,15.217],[121.395,15.105],[121.345,15.04],[121.338,14.947],[121.34,14.886],[121.334,14.852],[121.331,14.839],[121.33,14.835],[121.253,14.829],[121.221,14.82],[121.165,14.823],[121.137,14.804],[121.105,14.763]]],[[[121.935,15.059],[121.837,15.039],[121.821,14.937],[121.873,14.877],[121.938,14.712],[122.004,14.667],[122.022,14.814],[121.967,14.907],[122.05,15.006],[121.935,15.059]]],[[[121.929,14.236],[121.985,14.112],[122.113,14.027],[122.128,14.087],[121.929,14.236]]]]}},{"type":"Feature","properties":{"name":"Bicol Region","pcode":"PH05"},"geometry":{"type":"MultiPolygon","coordinates":[[[[122.584,13.962],[122.68,13.808],[122.722,13.817],[122.836,13.735],[122.824,13.649],[122.976,13.521],[123.192,13.431],[123.239,13.29],[123.327,13.198],[123.288,13.147],[123.32,13.007],[123.404,13.046],[123.588,12.906],[123.796,12.863],[123.901,12.973],[124.019,12.973],[124.019,12.879],[123.864,12.859],[123.85,12.721],[123.989,12.545],[124.11,12.594],[124.156,12.809],[124.117,12.909],[124.141,12.98],[123.906,13.141],[123.837,13.083],[123.756,13.145],[123.775,13.227],[123.678,13.477],[123.53,13.574],[123.588,13.725],[123.803,13.688],[123.942,13.795],[123.599,13.892],[123.416,13.984],[123.346,14.069],[123.277,14.072],[123.233,14.005],[123.294,13.927],[123.325,13.8],[123.239,13.732],[123.136,13.73],[123.046,13.776],[123.083,13.982],[122.988,14.129],[122.864,14.271],[122.67,14.341],[122.621,14.288],[122.522,14.349],[122.36,14.25],[122.352,14.122],[122.384,14.067],[122.452,14.15],[122.793,14.014],[122.584,13.962]]],[[[123.237,12.601],[123.282,12.163],[123.218,12.132],[123.179,11.912],[123.297,12.022],[123.43,12.202],[123.54,12.213],[123.65,12.048],[123.728,11.987],[123.722,11.932],[123.861,11.9],[124.014,11.786],[124.07,11.853],[124.006,12.024],[123.894,12.21],[123.781,12.226],[123.697,12.331],[123.582,12.353],[123.555,12.462],[123.237,12.601]]],[[[123.622,12.693],[123.591,12.632],[123.685,12.463],[123.783,12.423],[123.725,12.614],[123.622,12.693]]],[[[122.995,13.159],[122.928,13.113],[122.985,13.006],[123.182,12.914],[123.045,13.135],[122.995,13.159]]],[[[124.206,14.1],[124.125,14.047],[124.148,13.926],[124.136,13.796],[124.057,13.619],[124.171,13.531],[124.256,13.593],[124.346,13.574],[124.419,13.783],[124.414,13.865],[124.283,13.947],[124.206,14.1]]]]}},{"type":"Feature","properties":{"name":"Western Visayas","pcode":"PH06"},"geometry":{"type":"MultiPolygon","coordinates":[[[[122.085,11.503],[122.05,11.41],[122.033,11.19],[122.054,11.032],[121.984,10.932],[121.923,10.764],[121.978,10.675],[121.912,10.447],[121.962,10.414],[122.051,10.487],[122.106,10.583],[122.207,10.639],[122.455,10.688],[122.58,10.687],[122.611,10.775],[122.734,10.786],[122.785,10.861],[122.782,10.988],[123.089,11.146],[123.109,11.297],[123.16,11.47],[123.075,11.527],[122.987,11.482],[122.826,11.597],[122.715,11.614],[122.635,11.522],[122.508,11.592],[122.452,11.552],[122.385,11.735],[122.331,11.735],[122.164,11.826],[122.087,11.834],[121.999,11.913],[121.885,11.899],[121.862,11.781],[122.101,11.701],[122.085,11.503]]],[[[123.336,10.382],[123.367,10.452],[123.464,10.522],[123.509,10.708],[123.56,10.814],[123.514,10.919],[123.296,10.961],[123.201,11.004],[123.072,10.913],[122.952,10.894],[122.95,10.681],[122.88,10.564],[122.802,10.516],[122.866,10.353],[122.838,10.229],[122.861,10.102],[122.661,9.977],[122.451,9.976],[122.387,9.835],[122.408,9.659],[122.579,9.447],[122.592,9.463],[122.723,9.597],[122.983,9.913],[123.016,10.012],[123.189,10.261],[123.184,10.356],[123.237,10.438],[123.336,10.382]]],[[[122.514,10.411],[122.64,10.445],[122.727,10.615],[122.714,10.716],[122.665,10.752],[122.527,10.615],[122.514,10.411]]]]}},{"type":"Feature","properties":{"name":"Central Visayas","pcode":"PH07"},"geometry":{"type":"MultiPolygon","coordinates":[[[[122.723,9.597],[122.592,9.461],[122.589,9.444],[122.674,9.38],[122.87,9.326],[122.87,9.256],[122.94,9.077],[123.015,9.038],[123.127,9.055],[123.284,9.209],[123.308,9.341],[123.23,9.464],[123.185,9.479],[123.14,9.594],[123.161,9.708],[123.132,9.839],[123.228,10.004],[123.331,10.278],[123.336,10.382],[123.237,10.438],[123.184,10.356],[123.189,10.261],[123.016,10.012],[122.983,9.913],[122.723,9.597]]],[[[123.718,11.148],[123.783,11.146],[123.759,11.268],[123.688,11.225],[123.718,11.148]]],[[[123.466,9.571],[123.537,9.805],[123.605,9.898],[123.64,10.084],[123.766,10.226],[124.001,10.354],[124.033,10.498],[124.004,10.755],[124.054,10.882],[124.035,11.147],[123.964,11.124],[123.901,11.034],[123.934,10.994],[123.831,10.733],[123.742,10.634],[123.667,10.413],[123.586,10.339],[123.583,10.264],[123.515,10.148],[123.415,10.052],[123.344,9.786],[123.3,9.518],[123.354,9.425],[123.466,9.571]]],[[[124.436,10.718],[124.316,10.709],[124.275,10.591],[124.487,10.638],[124.436,10.718]]],[[[124.555,9.825],[124.57,9.977],[124.519,10.066],[124.462,10.063],[124.37,10.154],[124.152,10.153],[124.063,10.069],[124.028,9.967],[123.867,9.911],[123.784,9.793],[123.866,9.716],[123.872,9.627],[123.982,9.598],[124.258,9.598],[124.4,9.653],[124.408,9.71],[124.555,9.825]]],[[[123.6,9.299],[123.592,9.251],[123.462,9.177],[123.588,9.095],[123.657,9.189],[123.6,9.299]]]]}},{"type":"Feature","properties":{"name":"Eastern Visayas","pcode":"PH08"},"geometry":{"type":"MultiPolygon","coordinates":[[[[124.261,12.549],[124.322,12.427],[124.338,12.315],[124.39,12.195],[124.536,12.058],[124.692,12.01],[124.711,11.942],[124.917,11.742],[124.997,11.78],[124.985,11.617],[124.83,11.525],[124.984,11.42],[125.014,11.277],[125.151,11.275],[125.209,11.098],[125.297,11.143],[125.433,11.092],[125.529,11.147],[125.547,11.26],[125.611,11.302],[125.438,11.615],[125.478,11.715],[125.435,11.827],[125.426,11.956],[125.497,12.07],[125.453,12.259],[125.308,12.316],[125.291,12.469],[125.145,12.585],[125.028,12.53],[124.935,12.568],[124.86,12.531],[124.643,12.508],[124.463,12.521],[124.355,12.556],[124.261,12.549]]],[[[124.396,11.59],[124.473,11.461],[124.606,11.489],[124.535,11.676],[124.374,11.694],[124.396,11.59]]],[[[125.034,10.934],[125.026,11.196],[124.964,11.272],[124.968,11.392],[124.88,11.442],[124.702,11.305],[124.585,11.305],[124.537,11.426],[124.437,11.443],[124.316,11.564],[124.289,11.493],[124.376,11.275],[124.402,11.109],[124.383,11.046],[124.439,10.919],[124.516,10.868],[124.59,11.014],[124.684,10.939],[124.783,10.776],[124.804,10.662],[124.723,10.406],[124.792,10.303],[124.753,10.187],[124.778,10.134],[124.889,10.121],[124.965,10.045],[125.023,10.089],[124.977,10.213],[124.97,10.377],[125.025,10.369],[125.131,10.277],[125.217,10.247],[125.268,10.3],[125.24,10.395],[125.18,10.427],[125.187,10.591],[125.012,10.753],[125.034,10.934]]],[[[125.223,9.963],[125.213,10.128],[125.116,10.113],[125.223,9.963]]]]}},{"type":"Feature","properties":{"name":"Zamboanga Peninsula","pcode":"PH09"},"geometry":{"type":"MultiPolygon","coordinates":[[[[123.56,8.346],[123.55,8.625],[123.436,8.716],[123.351,8.635],[123.268,8.512],[123.183,8.533],[123.064,8.515],[122.98,8.413],[122.99,8.202],[122.902,8.143],[122.345,8.039],[122.226,7.96],[122.119,7.776],[122.138,7.562],[122.055,7.448],[122.012,7.279],[121.93,7.2],[121.898,7.079],[121.923,6.988],[122.113,6.888],[122.185,6.952],[122.292,7.325],[122.393,7.39],[122.354,7.469],[122.422,7.503],[122.446,7.609],[122.544,7.734],[122.692,7.789],[122.812,7.746],[122.782,7.678],[122.781,7.505],[122.874,7.464],[122.996,7.5],[123.055,7.638],[123.125,7.67],[123.224,7.54],[123.406,7.358],[123.447,7.443],[123.38,7.491],[123.385,7.606],[123.463,7.63],[123.482,7.729],[123.431,7.782],[123.539,7.85],[123.634,7.869],[123.65,7.96],[123.636,8.034],[123.564,8.023],[123.563,8.026],[123.56,8.031],[123.559,8.032],[123.558,8.295],[123.56,8.346]]],[[[122.839,7.279],[122.937,7.375],[122.93,7.428],[122.825,7.439],[122.788,7.346],[122.839,7.279]]],[[[122.033,6.741],[121.917,6.675],[121.943,6.615],[122.043,6.565],[122.037,6.694],[122.031,6.71],[122.038,6.713],[122.033,6.741]]]]}},{"type":"Feature","properties":{"name":"Northern Mindanao","pcode":"PH10"},"geometry":{"type":"MultiPolygon","coordinates":[[[[123.636,8.034],[123.747,8.049],[123.866,8.158],[123.864,8.325],[123.818,8.476],[123.688,8.641],[123.604,8.651],[123.556,8.594],[123.56,8.346],[123.558,8.295],[123.559,8.032],[123.56,8.031],[123.563,8.026],[123.564,8.023],[123.636,8.034]]],[[[123.634,7.869],[123.773,7.704],[123.851,7.735],[123.87,7.738],[124.002,7.743],[124.029,7.822],[123.966,7.88],[124.109,8.03],[124.284,8.053],[124.396,8.153],[124.481,8.163],[124.537,8.09],[124.563,7.982],[124.711,7.754],[124.74,7.73],[124.756,7.682],[124.777,7.646],[124.776,7.636],[124.807,7.597],[124.818,7.565],[124.801,7.522],[124.805,7.512],[124.882,7.418],[124.983,7.408],[125.066,7.434],[125.155,7.466],[125.229,7.492],[125.231,7.501],[125.335,7.636],[125.425,7.623],[125.441,7.742],[125.415,7.938],[125.379,8.003],[125.38,8.043],[125.393,8.043],[125.406,8.076],[125.394,8.17],[125.275,8.355],[125.248,8.478],[125.255,8.58],[125.17,8.584],[125.239,8.66],[125.233,8.951],[125.226,8.95],[125.218,9.03],[125.171,9.01],[125.185,8.896],[125.078,8.828],[125.024,8.901],[124.875,9.006],[124.779,8.976],[124.79,8.825],[124.74,8.692],[124.772,8.595],[124.743,8.494],[124.578,8.519],[124.449,8.624],[124.312,8.536],[124.231,8.219],[124.154,8.185],[124.014,8.195],[123.848,8.112],[123.745,7.994],[123.65,7.96],[123.634,7.869]]],[[[124.699,9.257],[124.635,9.217],[124.675,9.121],[124.775,9.08],[124.779,9.203],[124.699,9.257]]]]}},{"type":"Feature","properties":{"name":"Davao Region","pcode":"PH11"},"geometry":{"type":"MultiPolygon","coordinates":[[[[125.229,7.492],[125.241,7.414],[125.255,7.259],[125.229,7.176],[125.289,7.115],[125.293,7.036],[125.206,6.915],[125.079,6.84],[125.047,6.668],[125.133,6.431],[125.249,6.435],[125.393,6.503],[125.424,6.37],[125.426,6.32],[125.505,6.23],[125.539,6.071],[125.481,5.908],[125.483,5.838],[125.394,5.649],[125.317,5.569],[125.386,5.56],[125.513,5.749],[125.625,5.873],[125.702,6.024],[125.703,6.213],[125.586,6.49],[125.501,6.567],[125.387,6.604],[125.392,6.803],[125.49,6.921],[125.525,7.028],[125.61,7.046],[125.664,7.127],[125.645,7.216],[125.697,7.294],[125.81,7.366],[125.884,7.126],[125.957,7.067],[125.977,6.928],[126.078,6.852],[126.069,6.652],[126.117,6.455],[126.226,6.435],[126.22,6.635],[126.26,6.753],[126.192,6.839],[126.206,6.954],[126.292,6.901],[126.338,7.006],[126.446,7.017],[126.484,7.114],[126.561,7.202],[126.549,7.429],[126.596,7.515],[126.559,7.578],[126.554,7.726],[126.507,7.736],[126.368,7.919],[126.352,8.002],[126.149,7.997],[126.039,7.931],[125.98,7.999],[125.776,7.952],[125.753,7.998],[125.379,8.003],[125.415,7.938],[125.441,7.742],[125.425,7.623],[125.335,7.636],[125.231,7.501],[125.229,7.492]]],[[[125.765,6.893],[125.798,7.117],[125.694,7.188],[125.664,7.109],[125.713,7.069],[125.765,6.893]]]]}},{"type":"Feature","properties":{"name":"Soccsksargen","pcode":"PH12"},"geometry":{"type":"Polygon","coordinates":[[[124.801,7.522],[124.791,7.543],[124.742,7.591],[124.528,7.638],[124.485,7.439],[124.396,7.355],[124.366,7.236],[124.444,7.236],[124.554,7.06],[124.665,7.063],[124.668,7.235],[124.784,7.202],[124.825,7.063],[124.805,6.842],[124.83,6.792],[124.953,6.785],[124.969,6.71],[124.887,6.678],[124.872,6.617],[124.779,6.627],[124.784,6.693],[124.634,6.888],[124.516,6.728],[124.279,6.696],[124.248,6.757],[124.148,6.747],[124.016,6.715],[124.055,6.603],[124.029,6.538],[124.056,6.377],[124.168,6.273],[124.185,6.211],[124.322,6.115],[124.423,6.089],[124.521,6.022],[124.924,5.86],[125.073,5.858],[125.159,6.098],[125.272,6.084],[125.292,5.982],[125.214,5.887],[125.212,5.772],[125.286,5.694],[125.317,5.569],[125.394,5.649],[125.483,5.838],[125.481,5.908],[125.539,6.071],[125.505,6.23],[125.426,6.32],[125.424,6.37],[125.393,6.503],[125.249,6.435],[125.133,6.431],[125.047,6.668],[125.079,6.84],[125.206,6.915],[125.293,7.036],[125.289,7.115],[125.229,7.176],[125.255,7.259],[125.241,7.414],[125.229,7.492],[125.155,7.466],[125.066,7.434],[124.983,7.408],[124.882,7.418],[124.805,7.512],[124.801,7.522]]]}},{"type":"Feature","properties":{"name":"NCR (Metro Manila)","pcode":"PH13"},"geometry":{"type":"Polygon","coordinates":[[[120.918,14.713],[120.985,14.562],[120.966,14.465],[121.007,14.354],[121.029,14.366],[121.069,14.507],[121.11,14.547],[121.11,14.592],[121.13,14.634],[121.131,14.668],[121.105,14.763],[121.031,14.784],[120.918,14.713]]]}},{"type":"Feature","properties":{"name":"CAR (Cordillera)","pcode":"PH14"},"geometry":{"type":"Polygon","coordinates":[[[120.769,16.198],[120.889,16.436],[120.904,16.595],[120.984,16.569],[121.135,16.645],[121.259,16.651],[121.346,16.769],[121.521,16.839],[121.568,16.91],[121.562,17.185],[121.53,17.275],[121.56,17.35],[121.629,17.418],[121.647,17.5],[121.497,17.591],[121.388,17.794],[121.316,17.828],[121.357,17.922],[121.327,17.975],[121.364,18.062],[121.46,18.049],[121.489,18.239],[121.402,18.341],[121.227,18.436],[121.156,18.544],[121.061,18.539],[120.959,18.463],[120.947,18.421],[120.917,18.285],[120.97,18.182],[120.928,18.021],[120.91,17.95],[120.834,17.959],[120.691,17.835],[120.583,17.799],[120.498,17.625],[120.474,17.484],[120.589,17.492],[120.543,17.372],[120.559,17.312],[120.678,17.257],[120.692,17.173],[120.775,17.108],[120.785,16.921],[120.66,16.909],[120.586,16.837],[120.599,16.738],[120.467,16.503],[120.469,16.38],[120.513,16.231],[120.558,16.218],[120.63,16.18],[120.769,16.198]]]}},{"type":"Feature","properties":{"name":"Caraga","pcode":"PH16"},"geometry":{"type":"MultiPolygon","coordinates":[[[[125.379,8.003],[125.753,7.998],[125.776,7.952],[125.98,7.999],[126.039,7.931],[126.149,7.997],[126.352,8.002],[126.368,7.919],[126.445,8.165],[126.317,8.223],[126.383,8.292],[126.318,8.353],[126.38,8.409],[126.388,8.512],[126.262,8.551],[126.143,8.529],[126.082,8.612],[126.335,8.841],[126.307,8.956],[126.158,9.105],[126.17,9.309],[126.057,9.233],[125.984,9.322],[125.908,9.49],[125.608,9.634],[125.566,9.743],[125.459,9.801],[125.401,9.767],[125.391,9.656],[125.461,9.384],[125.531,9.194],[125.537,9.079],[125.43,8.976],[125.281,8.991],[125.218,9.03],[125.226,8.95],[125.233,8.951],[125.239,8.66],[125.17,8.584],[125.255,8.58],[125.248,8.478],[125.275,8.355],[125.394,8.17],[125.406,8.076],[125.393,8.043],[125.38,8.043],[125.379,8.003]]],[[[125.934,9.76],[125.89,9.622],[125.971,9.585],[125.986,9.683],[125.934,9.76]]],[[[126.071,10.056],[125.973,9.923],[125.949,9.835],[126.015,9.757],[126.113,9.748],[126.122,9.837],[126.071,10.056]]],[[[125.642,10.472],[125.597,10.366],[125.514,10.321],[125.522,10.246],[125.481,10.104],[125.548,10.085],[125.57,10.006],[125.671,9.993],[125.698,10.06],[125.644,10.243],[125.682,10.392],[125.642,10.472]]]]}},{"type":"Feature","properties":{"name":"Mimaropa","pcode":"PH17"},"geometry":{"type":"MultiPolygon","coordinates":[[[[120.269,13.67],[120.222,13.822],[120.088,13.864],[120.1,13.785],[120.269,13.67]]],[[[122.026,13.199],[122.047,13.277],[122.144,13.389],[122.127,13.455],[122.009,13.549],[121.888,13.55],[121.811,13.453],[121.82,13.345],[121.866,13.285],[122.026,13.199]]],[[[121.091,12.327],[121.109,12.243],[121.263,12.239],[121.418,12.4],[121.41,12.445],[121.557,12.605],[121.539,12.696],[121.476,12.777],[121.487,13.022],[121.556,13.088],[121.441,13.228],[121.381,13.248],[121.209,13.418],[121.036,13.419],[120.908,13.511],[120.761,13.465],[120.413,13.531],[120.299,13.445],[120.332,13.395],[120.436,13.427],[120.523,13.224],[120.651,13.19],[120.766,12.989],[120.789,12.734],[120.854,12.719],[120.939,12.581],[120.92,12.538],[120.979,12.424],[121.091,12.327]]],[[[122.017,12.099],[122.088,12.313],[122.129,12.663],[122.002,12.597],[122.013,12.5],[121.941,12.391],[121.928,12.287],[122.019,12.233],[121.966,12.157],[122.017,12.099]]],[[[122.544,12.506],[122.429,12.458],[122.451,12.396],[122.564,12.311],[122.67,12.31],[122.699,12.402],[122.633,12.493],[122.544,12.506]]],[[[120.016,12],[120.224,11.982],[120.331,12.001],[120.341,12.058],[120.26,12.125],[120.163,12.119],[120.015,12.254],[119.861,12.255],[119.933,12.087],[120.016,12]]],[[[119.945,11.659],[120.049,11.718],[120.012,11.934],[119.872,11.928],[119.945,11.659]]],[[[117.205,8.332],[117.26,8.406],[117.431,8.508],[117.501,8.501],[117.566,8.674],[117.742,8.687],[117.808,8.767],[118.002,8.879],[118.102,9.051],[118.125,9.146],[118.364,9.196],[118.517,9.331],[118.572,9.439],[118.731,9.637],[118.773,9.729],[118.75,9.929],[118.845,9.965],[119.154,10.028],[119.218,10.077],[119.233,10.181],[119.293,10.283],[119.456,10.375],[119.57,10.373],[119.677,10.493],[119.639,10.65],[119.571,10.664],[119.6,10.822],[119.484,10.873],[119.5,11.133],[119.555,11.218],[119.564,11.312],[119.432,11.346],[119.418,11.037],[119.303,11.007],[119.334,10.894],[119.413,10.872],[119.463,10.725],[119.283,10.847],[119.274,10.765],[119.343,10.731],[119.292,10.557],[119.164,10.413],[119.105,10.434],[118.952,10.273],[118.938,10.207],[118.806,10.192],[118.808,10.028],[118.668,10.01],[118.606,9.871],[118.512,9.761],[118.358,9.657],[118.329,9.581],[118.197,9.472],[118.019,9.243],[117.906,9.261],[117.776,9.165],[117.746,9.068],[117.664,9.074],[117.621,8.999],[117.517,8.916],[117.425,8.758],[117.359,8.745],[117.218,8.522],[117.205,8.332]]],[[[119.805,10.441],[119.924,10.484],[119.994,10.592],[119.843,10.637],[119.791,10.563],[119.805,10.441]]],[[[117.284,8.182],[117.352,8.291],[117.265,8.299],[117.284,8.182]]],[[[117.024,7.806],[117.086,7.906],[117.066,8.08],[116.95,7.999],[116.943,7.929],[117.024,7.806]]]]}},{"type":"Feature","properties":{"name":"BARMM","pcode":"PH19"},"geometry":{"type":"MultiPolygon","coordinates":[[[[121.917,6.675],[121.831,6.679],[121.795,6.602],[121.958,6.406],[122.193,6.461],[122.212,6.581],[122.307,6.645],[122.143,6.67],[122.033,6.741],[122.038,6.713],[122.031,6.71],[122.037,6.694],[122.043,6.565],[121.943,6.615],[121.917,6.675]]],[[[123.851,7.735],[124.014,7.647],[124.141,7.448],[124.251,7.402],[124.157,7.175],[124.066,7.145],[124,7.04],[123.957,6.894],[123.962,6.812],[124.033,6.741],[124.148,6.747],[124.248,6.757],[124.279,6.696],[124.516,6.728],[124.634,6.888],[124.784,6.693],[124.779,6.627],[124.872,6.617],[124.887,6.678],[124.969,6.71],[124.953,6.785],[124.83,6.792],[124.805,6.842],[124.825,7.063],[124.784,7.202],[124.668,7.235],[124.665,7.063],[124.554,7.06],[124.444,7.236],[124.366,7.236],[124.396,7.355],[124.485,7.439],[124.528,7.638],[124.742,7.591],[124.791,7.543],[124.801,7.522],[124.818,7.565],[124.807,7.597],[124.776,7.636],[124.777,7.646],[124.756,7.682],[124.74,7.73],[124.711,7.754],[124.563,7.982],[124.537,8.09],[124.481,8.163],[124.396,8.153],[124.284,8.053],[124.109,8.03],[123.966,7.88],[124.029,7.822],[124.002,7.743],[123.87,7.738],[123.851,7.735]]],[[[121.284,5.859],[121.425,5.959],[121.385,6.011],[121.22,5.996],[121.154,6.078],[121.028,6.09],[120.918,6.025],[120.873,5.953],[120.941,5.889],[121.057,5.889],[121.195,5.949],[121.284,5.859]]],[[[119.812,5.123],[119.861,5.047],[119.966,5.082],[120.036,5.181],[120.239,5.18],[120.255,5.257],[120.175,5.344],[120.006,5.229],[119.812,5.123]]]]}}]}